{
  "links" : {
    "next" : "https://api.nasa.gov/neo/rest/v1/feed?start_date=2000-10-16&end_date=2000-10-16&detailed=true&api_key=t0TVs3DtDT2H8Oy2Zy8m2eVrNsAVKAexjcZXUckd",
    "prev" : "https://api.nasa.gov/neo/rest/v1/feed?start_date=2000-10-14&end_date=2000-10-14&detailed=true&api_key=t0TVs3DtDT2H8Oy2Zy8m2eVrNsAVKAexjcZXUckd",
    "self" : "https://api.nasa.gov/neo/rest/v1/feed?start_date=2000-10-15&end_date=2000-10-15&detailed=true&api_key=t0TVs3DtDT2H8Oy2Zy8m2eVrNsAVKAexjcZXUckd"
  },
  "element_count" : 9,
  "near_earth_objects" : {
    "2000-10-15" : [ {
      "links" : {
        "self" : "https://api.nasa.gov/neo/rest/v1/neo/3092347?api_key=t0TVs3DtDT2H8Oy2Zy8m2eVrNsAVKAexjcZXUckd"
      },
      "neo_reference_id" : "3092347",
      "name" : "(2001 TD)",
      "nasa_jpl_url" : "http://ssd.jpl.nasa.gov/sbdb.cgi?sstr=3092347",
      "absolute_magnitude_h" : 25.1,
      "estimated_diameter" : {
        "kilometers" : {
          "estimated_diameter_min" : 0.0253837029,
          "estimated_diameter_max" : 0.0567596853
        },
        "meters" : {
          "estimated_diameter_min" : 25.3837029364,
          "estimated_diameter_max" : 56.7596852866
        },
        "miles" : {
          "estimated_diameter_min" : 0.0157726969,
          "estimated_diameter_max" : 0.0352688224
        },
        "feet" : {
          "estimated_diameter_min" : 83.279867942,
          "estimated_diameter_max" : 186.2194458756
        }
      },
      "is_potentially_hazardous_asteroid" : false,
      "close_approach_data" : [ {
        "close_approach_date" : "2000-10-15",
        "epoch_date_close_approach" : 971593200000,
        "relative_velocity" : {
          "kilometers_per_second" : "17.3853677314",
          "kilometers_per_hour" : "62587.323832864",
          "miles_per_hour" : "38889.3290782593"
        },
        "miss_distance" : {
          "astronomical" : "0.3781443098",
          "lunar" : "147.0981445312",
          "kilometers" : "56569588",
          "miles" : "35150712"
        },
        "orbiting_body" : "Earth"
      } ],
      "orbital_data" : {
        "orbit_id" : "11",
        "orbit_determination_date" : "2017-04-06 09:16:02",
        "orbit_uncertainty" : "4",
        "minimum_orbit_intersection" : ".00497131",
        "jupiter_tisserand_invariant" : "6.292",
        "epoch_osculation" : "2458000.5",
        "eccentricity" : ".1657861677273728",
        "semi_major_axis" : ".9533338651727158",
        "inclination" : "9.016836811229497",
        "ascending_node_longitude" : "13.07065262779992",
        "orbital_period" : "339.9898547165654",
        "perihelion_distance" : ".7952842971010073",
        "perihelion_argument" : "241.4467927227719",
        "aphelion_distance" : "1.111383433244424",
        "perihelion_time" : "2457879.165317652984",
        "mean_anomaly" : "128.475850202472",
        "mean_motion" : "1.058855124662811",
        "equinox" : "J2000"
      }
    }, {
      "links" : {
        "self" : "https://api.nasa.gov/neo/rest/v1/neo/3180192?api_key=t0TVs3DtDT2H8Oy2Zy8m2eVrNsAVKAexjcZXUckd"
      },
      "neo_reference_id" : "3180192",
      "name" : "(2004 HT59)",
      "nasa_jpl_url" : "http://ssd.jpl.nasa.gov/sbdb.cgi?sstr=3180192",
      "absolute_magnitude_h" : 27.2,
      "estimated_diameter" : {
        "kilometers" : {
          "estimated_diameter_min" : 0.0096506147,
          "estimated_diameter_max" : 0.0215794305
        },
        "meters" : {
          "estimated_diameter_min" : 9.6506146958,
          "estimated_diameter_max" : 21.5794304844
        },
        "miles" : {
          "estimated_diameter_min" : 0.0059966121,
          "estimated_diameter_max" : 0.0134088323
        },
        "feet" : {
          "estimated_diameter_min" : 31.6621227185,
          "estimated_diameter_max" : 70.7986587106
        }
      },
      "is_potentially_hazardous_asteroid" : false,
      "close_approach_data" : [ {
        "close_approach_date" : "2000-10-15",
        "epoch_date_close_approach" : 971593200000,
        "relative_velocity" : {
          "kilometers_per_second" : "7.9853363708",
          "kilometers_per_hour" : "28747.2109348789",
          "miles_per_hour" : "17862.3989278418"
        },
        "miss_distance" : {
          "astronomical" : "0.1953090905",
          "lunar" : "75.9752349854",
          "kilometers" : "29217824",
          "miles" : "18155114"
        },
        "orbiting_body" : "Earth"
      } ],
      "orbital_data" : {
        "orbit_id" : "7",
        "orbit_determination_date" : "2017-04-06 09:12:50",
        "orbit_uncertainty" : "7",
        "minimum_orbit_intersection" : ".00758817",
        "jupiter_tisserand_invariant" : "6.139",
        "epoch_osculation" : "2458000.5",
        "eccentricity" : ".2232929950433721",
        "semi_major_axis" : ".9801342882847766",
        "inclination" : "11.12695928575858",
        "ascending_node_longitude" : "214.6634803636377",
        "orbital_period" : "354.4270015401303",
        "perihelion_distance" : ".7612771675089649",
        "perihelion_argument" : "112.1874296501164",
        "aphelion_distance" : "1.198991409060588",
        "perihelion_time" : "2458167.132512619432",
        "mean_anomaly" : "190.747363258656",
        "mean_motion" : "1.015723966954134",
        "equinox" : "J2000"
      }
    }, {
      "links" : {
        "self" : "https://api.nasa.gov/neo/rest/v1/neo/3252349?api_key=t0TVs3DtDT2H8Oy2Zy8m2eVrNsAVKAexjcZXUckd"
      },
      "neo_reference_id" : "3252349",
      "name" : "(2004 RZ164)",
      "nasa_jpl_url" : "http://ssd.jpl.nasa.gov/sbdb.cgi?sstr=3252349",
      "absolute_magnitude_h" : 19.0,
      "estimated_diameter" : {
        "kilometers" : {
          "estimated_diameter_min" : 0.4212646106,
          "estimated_diameter_max" : 0.9419763057
        },
        "meters" : {
          "estimated_diameter_min" : 421.2646105562,
          "estimated_diameter_max" : 941.9763057186
        },
        "miles" : {
          "estimated_diameter_min" : 0.2617616123,
          "estimated_diameter_max" : 0.5853167591
        },
        "feet" : {
          "estimated_diameter_min" : 1382.1017848971,
          "estimated_diameter_max" : 3090.4735428537
        }
      },
      "is_potentially_hazardous_asteroid" : true,
      "close_approach_data" : [ {
        "close_approach_date" : "2000-10-15",
        "epoch_date_close_approach" : 971593200000,
        "relative_velocity" : {
          "kilometers_per_second" : "15.1865388329",
          "kilometers_per_hour" : "54671.5397983115",
          "miles_per_hour" : "33970.7687152342"
        },
        "miss_distance" : {
          "astronomical" : "0.2722792782",
          "lunar" : "105.9166412354",
          "kilometers" : "40732404",
          "miles" : "25309942"
        },
        "orbiting_body" : "Earth"
      } ],
      "orbital_data" : {
        "orbit_id" : "62",
        "orbit_determination_date" : "2017-04-06 09:12:17",
        "orbit_uncertainty" : "0",
        "minimum_orbit_intersection" : ".0140013",
        "jupiter_tisserand_invariant" : "3.112",
        "epoch_osculation" : "2458000.5",
        "eccentricity" : ".6134106601298899",
        "semi_major_axis" : "2.553441042723828",
        "inclination" : "13.8698320072988",
        "ascending_node_longitude" : "74.93795898279072",
        "orbital_period" : "1490.346249390509",
        "perihelion_distance" : ".9871330871038503",
        "perihelion_argument" : "345.3869725804823",
        "aphelion_distance" : "4.119748998343805",
        "perihelion_time" : "2457816.419040451288",
        "mean_anomaly" : "44.46560352309919",
        "mean_motion" : ".2415546052786225",
        "equinox" : "J2000"
      }
    } ]
  }
}